IRIDIUM 7 [-]           
1 24793U 97020B   23305.87623164  .00000614  00000+0  20891-3 0  9996
2 24793  86.3961  65.4032 0001822  92.4200 267.7204 14.34954327387008
IRIDIUM 5 [-]           
1 24795U 97020D   23305.59623613  .00003771  00000+0  37481-3 0  9996
2 24795  86.3958 355.0816 0129806  92.9004 268.7084 14.85182472397114
IRIDIUM 4 [-]           
1 24796U 97020E   23305.88916192  .00000650  00000+0  21763-3 0  9995
2 24796  86.3963  62.6689 0002045  88.5822 271.5609 14.35861441387337
IRIDIUM 914 [-]         
1 24836U 97030A   23305.62442242  .00000819  00000+0  25567-3 0  9996
2 24836  86.3922  73.1187 0003137  56.6676 303.4823 14.39671850521692
IRIDIUM 16 [-]          
1 24841U 97030F   23305.47356871  .00000835  00000+0  27233-3 0  9997
2 24841  86.3995  94.5848 0001930 155.3804 204.7486 14.37559395381675
IRIDIUM 911 [-]         
1 24842U 97030G   23305.85816068  .00001025  00000+0  28169-3 0  9990
2 24842  86.4423  93.7388 0012315 275.2670  84.7127 14.46090358389276
IRIDIUM 17 [-]          
1 24870U 97034B   23305.57686521  .00000661  00000+0  21793-3 0  9994
2 24870  86.3925 124.2133 0003115 119.3090 240.8418 14.36652446378326
IRIDIUM 920 [-]         
1 24871U 97034C   23305.48112221  .00000822  00000+0  25300-3 0  9993
2 24871  86.3932 104.8620 0009878 233.5476 126.4814 14.40371289381083
